FORMOSAT 7-5            
1 44358U 19036V   26068.77147620  .00003857  00000+0  30916-3 0  9993
2 44358  23.9972 218.3817 0000871  89.5193 270.5408 14.96027232367445
STARLINK-33981          
1 63888U 25094AA  26068.70508870  .00006716  00000+0  56996-3 0  9997
2 63888  70.0026 234.4853 0002901 262.0511  98.0319 14.98341865 47200
